[
    {
        "Altitude(m)": 607897.6274729025,
        "Argument of Periapsis(deg)": 0.0,
        "Eccentricity": 0.0,
        "Inclination(deg)": 60.0,
        "Latitude(deg)": -14.29300690207738,
        "Longitude(deg)": -163.3812687579894,
        "Mean Anomaly(deg)": -16.363600000000037,
        "RAAN(deg)": 305.0,
        "Satellite Name": "Test1 1363",
        "Satellite Number": 1363,
        "Semi-Major Axis(m)": 6980739.136638005,
        "Time(s)": 0
    },
    {
        "Altitude(m)": 607750.8283981694,
        "Argument of Periapsis(deg)": 0.00010418945913296404,
        "Eccentricity": 0.0,
        "Inclination(deg)": 60.0,
        "Latitude(deg)": -13.758848780155136,
        "Longitude(deg)": -163.0941988152802,
        "Mean Anomaly(deg)": -15.743493854538185,
        "RAAN(deg)": 304.99957995086027,
        "Satellite Name": "Test1 1363",
        "Satellite Number": 1363,
        "Semi-Major Axis(m)": 6980739.136638005,
        "Time(s)": 10
    }
]